STARLINK-31448          
1 59611U 24080L   26068.30660454 -.00000110  00000+0  55219-5 0  9995
2 59611  43.0048  36.6460 0001473 247.8128 112.2567 15.27580783104516
2025-313BC              
1 67298U 25313BC  26068.18968176  .00075331  00000+0  26410-2 0  9997
2 67298  97.3985 144.8110 0008478 328.9209  31.1528 15.29126358  7890
